*******************************************************************************
Ephemeris / WWW_USER Mon Mar 26 22:06:55 2018 Pasadena, USA      / Horizons    
*******************************************************************************
Target body name: Metis (516)                     {source: jup310}
Center body name: Solar System Barycenter (0)     {source: DE431mx}
Center-site name: BODY CENTER
*******************************************************************************
Start time      : A.D. 2000-Jan-01 00:00:00.0000 TDB
Stop  time      : A.D. 2005-Jan-01 00:00:00.0000 TDB
Step-size       : 7200 minutes
*******************************************************************************
Center geodetic : 0.00000000,0.00000000,0.0000000 {E-lon(deg),Lat(deg),Alt(km)}
Center cylindric: 0.00000000,0.00000000,0.0000000 {E-lon(deg),Dxy(km),Dz(km)}
Center radii    : (undefined)                                                  
Output units    : AU-D                                                         
Output type     : GEOMETRIC cartesian states
Output format   : 2 (position and velocity)
Reference frame : ICRF/J2000.0                                                 
Coordinate systm: Ecliptic and Mean Equinox of Reference Epoch                 
*******************************************************************************
JDTDB
   X     Y     Z
   VX    VY    VZ
*******************************************************************************
$$SOE
2453224.500000000 = A.D. 2004-Aug-07 00:00:00.0000 TDB 
  -5.420294807611809E+00  3.989510805705795E-01  1.196507748615880E-01
   5.146502940183408E-03  1.009703115644385E-02  7.501516025116882E-04
2453229.500000000 = A.D. 2004-Aug-12 00:00:00.0000 TDB 
  -5.423496938303678E+00  3.629093177775065E-01  1.198612683016121E-01
   9.125131789512768E-03  8.229235942383813E-03  7.379524787858061E-04
2453234.500000000 = A.D. 2004-Aug-17 00:00:00.0000 TDB 
  -5.426488632978280E+00  3.268785947094633E-01  1.200666257738833E-01
   1.255883796773271E-02  5.486997079860288E-03  6.862078957825567E-04
2453239.500000000 = A.D. 2004-Aug-22 00:00:00.0000 TDB 
  -5.429267317932990E+00  2.908669362610568E-01  1.202671144181951E-01
   1.525068711812643E-02  2.011126489592985E-03  5.975928213717392E-04
2453244.500000000 = A.D. 2004-Aug-27 00:00:00.0000 TDB 
  -5.431822784630554E+00  2.548819274758118E-01  1.204631138379698E-01
   1.703687306161521E-02 -1.999590197575197E-03  4.772569472382761E-04
2453249.500000000 = A.D. 2004-Sep-01 00:00:00.0000 TDB 
  -5.434139726745191E+00  2.189340811675711E-01  1.206551563644528E-01
   1.781164527765540E-02 -6.300426293552180E-03  3.326910172244356E-04
2453254.500000000 = A.D. 2004-Sep-06 00:00:00.0000 TDB 
  -5.436209866931800E+00  1.830250471439687E-01  1.208433821131892E-01
   1.754723802936330E-02 -1.064027770591217E-02  1.724972322193161E-04
2453259.500000000 = A.D. 2004-Sep-11 00:00:00.0000 TDB 
  -5.438023223420685E+00  1.471535972413931E-01  1.210278588640136E-01
   1.627233530156979E-02 -1.477971301283890E-02  5.434044538614023E-06
2453264.500000000 = A.D. 2004-Sep-16 00:00:00.0000 TDB 
  -5.439565562388055E+00  1.113211887596356E-01  1.212087898131530E-01
   1.405618562481159E-02 -1.849390808024757E-02 -1.598379047279065E-04
2453269.500000000 = A.D. 2004-Sep-21 00:00:00.0000 TDB 
  -5.440827130828795E+00  7.552330443041425E-02  1.213860787337916E-01
   1.101707787361797E-02 -2.157025616509158E-02 -3.144843106137955E-04
2453274.500000000 = A.D. 2004-Sep-26 00:00:00.0000 TDB 
  -5.441803585024492E+00  3.975072944704685E-02  1.215593954640595E-01
   7.326757062520247E-03 -2.382338265439117E-02 -4.498034694942802E-04
2453279.500000000 = A.D. 2004-Oct-01 00:00:00.0000 TDB 
  -5.442486268804294E+00  3.995412341833088E-03  1.217285039211982E-01
   3.208333345911592E-03 -2.511544647032916E-02 -5.578930170697786E-04
2453284.500000000 = A.D. 2004-Oct-06 00:00:00.0000 TDB 
  -5.442868779983558E+00 -3.174986352893744E-02  1.218931275582703E-01
  -1.089369613895573E-03 -2.537598546953788E-02 -6.326498272910233E-04
2453289.500000000 = A.D. 2004-Oct-11 00:00:00.0000 TDB 
  -5.442955515316048E+00 -6.749755892142187E-02  1.220526827143185E-01
  -5.318882699034164E-03 -2.460734823721941E-02 -6.703435508839038E-04
2453294.500000000 = A.D. 2004-Oct-16 00:00:00.0000 TDB 
  -5.442747341975121E+00 -1.032579829657526E-01  1.222067198463854E-01
  -9.249113228787314E-03 -2.285455937872452E-02 -6.688281368665105E-04
2453299.500000000 = A.D. 2004-Oct-21 00:00:00.0000 TDB 
  -5.442244892002276E+00 -1.390360655350684E-01  1.223549682728216E-01
  -1.266164492597223E-02 -2.020336723618633E-02 -6.274729054244618E-04
2453304.500000000 = A.D. 2004-Oct-26 00:00:00.0000 TDB 
  -5.441458686485373E+00 -1.748417711530319E-01  1.224968650082578E-01
  -1.534641989755660E-02 -1.679682854964781E-02 -5.478701736251324E-04
2453309.500000000 = A.D. 2004-Oct-31 00:00:00.0000 TDB 
  -5.440400046778806E+00 -2.106826744957822E-01  1.226319392688567E-01
  -1.713537788917647E-02 -1.283606020299848E-02 -4.344426631640479E-04
2453314.500000000 = A.D. 2004-Nov-05 00:00:00.0000 TDB 
  -5.439076540944622E+00 -2.465594751958486E-01  1.227600139177411E-01
  -1.792631647735047E-02 -8.559801825155937E-03 -2.941383228348917E-04
2453319.500000000 = A.D. 2004-Nov-10 00:00:00.0000 TDB 
  -5.437499491391129E+00 -2.824725966505193E-01  1.228808528859350E-01
  -1.768277180975708E-02 -4.214159128480748E-03 -1.354017241841700E-04
2453324.500000000 = A.D. 2004-Nov-15 00:00:00.0000 TDB 
  -5.435684576459505E+00 -3.184221775823877E-01  1.229941925769346E-01
  -1.642378135749603E-02 -3.904229191936327E-05  3.253818620503288E-05
2453329.500000000 = A.D. 2004-Nov-20 00:00:00.0000 TDB 
  -5.433639607769626E+00 -3.544030624068923E-01  1.231000551163958E-01
  -1.421044422015877E-02  3.739740964425929E-03  2.002041541618017E-04
2453334.500000000 = A.D. 2004-Nov-25 00:00:00.0000 TDB 
  -5.431372155481093E+00 -3.904052872570093E-01  1.231985958585584E-01
  -1.115424268532407E-02  6.905183688123149E-03  3.577148234681326E-04
2453339.500000000 = A.D. 2004-Nov-30 00:00:00.0000 TDB 
  -5.428896478373203E+00 -4.264217450847088E-01  1.232897994484119E-01
  -7.423820519326416E-03  9.258789158050687E-03  4.951344866719449E-04
2453344.500000000 = A.D. 2004-Dec-05 00:00:00.0000 TDB 
  -5.426218009710857E+00 -4.624409126366873E-01  1.233739256191481E-01
  -3.243286819827976E-03  1.066208550528858E-02  6.040757006457921E-04
2453349.500000000 = A.D. 2004-Dec-10 00:00:00.0000 TDB 
  -5.423336924477016E+00 -4.984463909460186E-01  1.234514625729958E-01
   1.139813510508368E-03  1.104750441892973E-02  6.786250370907014E-04
2453354.500000000 = A.D. 2004-Dec-15 00:00:00.0000 TDB 
  -5.420257263061096E+00 -5.344274804421093E-01  1.235226575801318E-01
   5.487702275306679E-03  1.040428542650971E-02  7.152427219837731E-04
2453359.500000000 = A.D. 2004-Dec-20 00:00:00.0000 TDB 
  -5.416979533387778E+00 -5.703729580649178E-01  1.235878513921097E-01
   9.567686888890044E-03  8.766025123878996E-03  7.122111087781324E-04
2453364.500000000 = A.D. 2004-Dec-25 00:00:00.0000 TDB 
  -5.413495917911191E+00 -6.062686214963716E-01  1.236476119716721E-01
   1.315139112748016E-02  6.214209833432478E-03  6.696066953451697E-04
2453369.500000000 = A.D. 2004-Dec-30 00:00:00.0000 TDB 
  -5.409799558902944E+00 -6.421026548660813E-01  1.237024017849472E-01
   1.602557958063034E-02  2.889258145370481E-03  5.897255080228222E-04
